{
  "norad_id": 63673,
  "name": "STARLINK-11634 [DTC]",
  "history": [
    {
      "epoch": "2026-03-28T21:35:06.154656Z",
      "apogee_km": 357.34025809443756,
      "perigee_km": 355.18390350876416,
      "latitude_deg": 1.37806479927591e-05,
      "longitude_deg": 12.480368152509142,
      "height_km": 355.3359941087813,
      "semi_major_axis_km": 6734.399080801601,
      "eccentricity": 0.0001601,
      "inclination_deg": 43.0025,
      "raan_deg": 162.5692,
      "arg_perigee_deg": 310.3979,
      "mean_anomaly_deg": 49.6749,
      "mean_motion_rev_day": 15.70921517
    },
    {
      "epoch": "2026-03-28T21:35:06.155520Z",
      "apogee_km": 357.34025809443756,
      "perigee_km": 355.18390350876416,
      "latitude_deg": 1.3780648269779656e-05,
      "longitude_deg": 12.480364542652373,
      "height_km": 355.3359941087823,
      "semi_major_axis_km": 6734.399080801601,
      "eccentricity": 0.0001601,
      "inclination_deg": 43.0025,
      "raan_deg": 162.5692,
      "arg_perigee_deg": 310.3979,
      "mean_anomaly_deg": 49.6749,
      "mean_motion_rev_day": 15.70921517
    },
    {
      "epoch": "2026-03-30T04:06:17.860320Z",
      "apogee_km": 357.4507946051299,
      "perigee_km": 355.34423220933604,
      "latitude_deg": 7.552917862509341e-06,
      "longitude_deg": -94.23541992489427,
      "height_km": 355.71501033947635,
      "semi_major_axis_km": 6734.534513407232,
      "eccentricity": 0.0001564,
      "inclination_deg": 43.0006,
      "raan_deg": 154.9056,
      "arg_perigee_deg": 295.5989,
      "mean_anomaly_deg": 64.4717,
      "mean_motion_rev_day": 15.7087413
    }
  ]
}